{
    "satellites": [
        {
            "name": "starlink301",
            "title": "Starlink-301 (G17-12) (new)",
            "tle": [
                "1 70228C 25211Y   25264.71715278 -.00128840  00000+0 -18791-3 0  2645",
                "2 70228  97.6000 304.6274 0002778 256.2383  62.2427 16.05310165    14"
            ],
            "stdMag": 5,
            "noradId": "70228",
            "tleUrl": "http://celestrak.org/NORAD/elements/supplemental/sup-gp.php?FILE=starlink&FORMAT=tle",
            "launchDate": "2025-09-19T16:31:39.000Z",
            "active": true,
            "batch": [
                {
                    "noradId": "70228",
                    "tle": [
                        "1 70228C 25211Y   25264.71715278 -.00128840  00000+0 -18791-3 0  2645",
                        "2 70228  97.6000 304.6274 0002778 256.2383  62.2427 16.05310165    14"
                    ]
                },
                {
                    "noradId": "70229",
                    "tle": [
                        "1 70229C 25211Z   25264.73381944 -.00188900  00000+0 -27899-3 0  2649",
                        "2 70229  97.5998 304.6462 0002088 253.1982 161.3026 16.05168131    14"
                    ]
                },
                {
                    "noradId": "70227",
                    "tle": [
                        "1 70227C 25211X   25264.71715278 -.00151290  00000+0 -22197-3 0  2644",
                        "2 70227  97.5999 304.6272 0002442 255.0267  63.3396 16.05236865    14"
                    ]
                },
                {
                    "noradId": "70226",
                    "tle": [
                        "1 70226C 25211W   25264.71437500 -.00255250  00000+0 -38145-3 0  2643",
                        "2 70226  97.5999 304.6239 0001721 252.7526  49.2596 16.05043725    13"
                    ]
                },
                {
                    "noradId": "70225",
                    "tle": [
                        "1 70225C 25211V   25264.71229167 -.00216880  00000+0 -32211-3 0  2644",
                        "2 70225  97.5999 304.6216 0001797 253.6514  36.4399 16.05105490    14"
                    ]
                },
                {
                    "noradId": "70224",
                    "tle": [
                        "1 70224C 25211U   25264.72687500 -.00264000  00000+0 -39594-3 0  2641",
                        "2 70224  97.5998 304.6380 0001746 253.6822 120.2420 16.04993199    17"
                    ]
                },
                {
                    "noradId": "70223",
                    "tle": [
                        "1 70223C 25211T   25264.71090278 -.00265190  00000+0 -39974-3 0  2642",
                        "2 70223  97.5998 304.6197 0001504 253.4431  28.1422 16.04911358    13"
                    ]
                },
                {
                    "noradId": "70222",
                    "tle": [
                        "1 70222C 25211S   25264.71090278 -.00286090  00000+0 -43378-3 0  2646",
                        "2 70222  97.5999 304.6197 0001150 250.2059  31.2688 16.04836521    18"
                    ]
                },
                {
                    "noradId": "70221",
                    "tle": [
                        "1 70221C 25211R   25264.71020833 -.00357370  00000+0 -54521-3 0  2647",
                        "2 70221  97.5999 304.6188 0001010 255.2929  22.0662 16.04807870    18"
                    ]
                },
                {
                    "noradId": "70220",
                    "tle": [
                        "1 70220C 25211Q   25264.71506944 -.00385230  00000+0 -59133-3 0  2648",
                        "2 70220  97.5998 304.6243 0000911 254.0560  51.2554 16.04734586    12"
                    ]
                },
                {
                    "noradId": "70219",
                    "tle": [
                        "1 70219C 25211P   25264.71020833 -.00411000  00000+0 -63438-3 0  2642",
                        "2 70219  97.5999 304.6188 0000752 248.2278  28.9056 16.04669633    11"
                    ]
                },
                {
                    "noradId": "70218",
                    "tle": [
                        "1 70218C 25211N   25264.71368056 -.00477940  00000+0 -74232-3 0  2642",
                        "2 70218  97.6000 304.6228 0000688 254.7306  42.3330 16.04634607    19"
                    ]
                },
                {
                    "noradId": "70217",
                    "tle": [
                        "1 70217C 25211M   25264.71090278 -.00555930  00000+0 -86871-3 0  2647",
                        "2 70217  97.6001 304.6196 0000545 252.8894  28.0350 16.04614227    15"
                    ]
                },
                {
                    "noradId": "70216",
                    "tle": [
                        "1 70216C 25211L   25264.71784722 -.00572290  00000+0 -89970-3 0  2641",
                        "2 70216  97.6001 304.6275 0000543 254.1776  66.7057 16.04529893    11"
                    ]
                },
                {
                    "noradId": "70215",
                    "tle": [
                        "1 70215C 25211K   25264.71784722 -.00631770  00000+0 -99922-3 0  2647",
                        "2 70215  97.6001 304.6275 0000497 254.2695  66.5015 16.04490405    17"
                    ]
                },
                {
                    "noradId": "70214",
                    "tle": [
                        "1 70214C 25211J   25264.70951389 -.00623120  00000+0 -98843-3 0  2641",
                        "2 70214  97.6002 304.6178 0000545 249.7860  22.6139 16.04432302    18"
                    ]
                },
                {
                    "noradId": "70213",
                    "tle": [
                        "1 70213C 25211H   25264.71298611 -.00676860  00000+0 -10864-2 0  2648",
                        "2 70213  97.6002 304.6217 0000418 248.8546  43.3540 16.04290491    18"
                    ]
                },
                {
                    "noradId": "70212",
                    "tle": [
                        "1 70212C 25211G   25264.71090278 -.00634850  00000+0 -10127-2 0  2641",
                        "2 70212  97.6002 304.6193 0000433 252.4716  27.8193 16.04350678    12"
                    ]
                },
                {
                    "noradId": "70211",
                    "tle": [
                        "1 70211C 25211F   25264.73104167 -.00704040  00000+0 -11382-2 0  2648",
                        "2 70211  97.6003 304.6423 0000347 251.9059 144.3822 16.04196408    19"
                    ]
                },
                {
                    "noradId": "70210",
                    "tle": [
                        "1 70210C 25211E   25264.70881944 -.00795300  00000+0 -12970-2 0  2642",
                        "2 70210  97.6003 304.6168 0000397 246.8444  20.9103 16.04144511    19"
                    ]
                },
                {
                    "noradId": "70209",
                    "tle": [
                        "1 70209C 25211D   25264.70951389 -.00898150  00000+0 -14825-2 0  2649",
                        "2 70209  97.6004 304.6176 0000428 245.9875  25.5643 16.04047568    14"
                    ]
                },
                {
                    "noradId": "70208",
                    "tle": [
                        "1 70208C 25211C   25264.71020833 -.00743860  00000+0 -12061-2 0  2647",
                        "2 70208  97.6004 304.6184 0000366 251.3868  24.4917 16.04189212    11"
                    ]
                },
                {
                    "noradId": "70207",
                    "tle": [
                        "1 70207C 25211B   25264.73312500 -.00863130  00000+0 -14197-2 0  2648",
                        "2 70207  97.6004 304.6446 0000339 244.7067 163.1965 16.04071436    10"
                    ]
                },
                {
                    "noradId": "70206",
                    "tle": [
                        "1 70206C 25211A   25264.71020833 -.00955780  00000+0 -15873-2 0  2645",
                        "2 70206  97.6004 304.6182 0000362 247.9125  27.5415 16.04004814    11"
                    ]
                }
            ]
        }
    ],
    "config": {}
}